NORAD_CAT_ID,OBJECT_NAME,OBJECT_TYPE,EPOCH,MEAN_MOTION,ECCENTRICITY,INCLINATION,RA_OF_ASC_NODE,ARG_OF_PERICENTER,MEAN_ANOMALY,BSTAR,MEAN_MOTION_DOT,MEAN_MOTION_DDOT,TLE_LINE0,TLE_LINE1,TLE_LINE2,SEMIMAJOR_AXIS,PERIOD,APOGEE,PERIGEE,DECAYED
51726.0,STARLINK-3527,PAYLOAD,2023-08-25 23:35:28,15.0884532,0.0001506,53.2176,159.2692,96.6061,263.5102,4.5156e-05,4.31e-06,0.0,0 STARLINK-3527,1 51726U 22016N   23237.98296518  .00000431  00000-0  45156-4 0  9990,2 51726  53.2176 159.2692 0001506  96.6061 263.5102 15.08845320 84727,6917.864,95.437,540.771,538.687,0.0
51726.0,STARLINK-3527,PAYLOAD,2023-08-26 01:10:51,15.08845801,0.0001507,53.2178,158.9722,93.2292,266.8873,5.223e-05,5.43e-06,0.0,0 STARLINK-3527,1 51726U 22016N   23238.04920473  .00000543  00000-0  52230-4 0  9997,2 51726  53.2178 158.9722 0001507  93.2292 266.8873 15.08845801 83677,6917.863,95.437,540.77,538.685,0.0
51726.0,STARLINK-3527,PAYLOAD,2023-08-27 01:01:38,15.08842895,0.0001459,53.2181,154.5129,89.7257,270.3902,-1.5063e-07,-2.9e-06,0.0,0 STARLINK-3527,1 51726U 22016N   23239.04280836 -.00000290  00000-0 -15063-6 0  9996,2 51726  53.2181 154.5129 0001459  89.7257 270.3902 15.08842895 84888,6917.872,95.437,540.746,538.727,0.0
51726.0,STARLINK-3527,PAYLOAD,2023-08-27 04:12:24,15.08847014,0.0001416,53.2175,153.9169,98.869,261.2462,3.038e-05,1.96e-06,0.0,0 STARLINK-3527,1 51726U 22016N   23239.17528418  .00000196  00000-0  30380-4 0  9991,2 51726  53.2175 153.9169 0001416  98.8690 261.2462 15.08847014 83846,6917.859,95.437,540.704,538.744,0.0
51726.0,STARLINK-3527,PAYLOAD,2023-08-28 04:03:11,15.08841583,0.0001414,53.2167,149.4542,96.1854,263.9299,0.00012796,1.749e-05,0.0,0 STARLINK-3527,1 51726U 22016N   23240.16888552  .00001749  00000-0  12796-3 0  9995,2 51726  53.2167 149.4542 0001414  96.1854 263.9299 15.08841583 85050,6917.876,95.437,540.719,538.762,0.0
51726.0,STARLINK-3527,PAYLOAD,2023-08-28 21:32:26,15.08826761,0.0001418,53.2164,146.1825,85.2625,274.8529,0.00018096,2.592e-05,0.0,0 STARLINK-3527,1 51726U 22016N   23240.89753311  .00002592  00000-0  18096-3 0  9995,2 51726  53.2164 146.1825 0001418  85.2625 274.8529 15.08826761 84107,6917.921,95.438,540.767,538.805,0.0
51726.0,STARLINK-3527,PAYLOAD,2023-08-29 10:15:31,15.08838304,0.0001392,53.2166,143.8044,65.3459,294.7678,2.2309e-05,6.7e-07,0.0,0 STARLINK-3527,1 51726U 22016N   23241.42745206  .00000067  00000-0  22309-4 0  9997,2 51726  53.2166 143.8044 0001392  65.3459 294.7678 15.08838304 85249,6917.886,95.438,540.714,538.788,0.0
51726.0,STARLINK-3527,PAYLOAD,2023-08-30 10:06:18,15.08838353,0.0001372,53.217,139.3467,76.4836,283.6309,3.1311e-05,2.1e-06,0.0,0 STARLINK-3527,1 51726U 22016N   23242.42105312  .00000210  00000-0  31311-4 0  9999,2 51726  53.2170 139.3467 0001372  76.4836 283.6309 15.08838353 84334,6917.885,95.438,540.7,538.801,0.0
51726.0,STARLINK-3527,PAYLOAD,2023-08-31 02:00:10,15.08837742,0.0001307,53.217,136.3729,88.5189,271.5952,8.6403e-05,1.087e-05,0.0,0 STARLINK-3527,1 51726U 22016N   23243.08345350  .00001087  00000-0  86403-4 0  9995,2 51726  53.2170 136.3729 0001307  88.5189 271.5952 15.08837742 85494,6917.887,95.438,540.656,538.848,0.0
51726.0,STARLINK-3527,PAYLOAD,2023-09-01 01:50:57,15.08810869,0.0001088,53.2169,131.917,160.7484,199.3549,0.00046871,7.174e-05,0.0,0 STARLINK-3527,1 51726U 22016N   23244.07705465  .00007174  00000-0  46871-3 0  9999,2 51726  53.2169 131.9170 0001088 160.7484 199.3549 15.08810869 85647,6917.969,95.439,540.587,539.082,0.0
51726.0,STARLINK-3527,PAYLOAD,2023-09-01 09:47:53,15.08841357,0.0001458,53.217,130.4258,85.1576,274.9583,4.4087e-05,4.14e-06,0.0,0 STARLINK-3527,1 51726U 22016N   23244.40825542  .00000414  00000-0  44087-4 0  9993,2 51726  53.2170 130.4258 0001458  85.1576 274.9583 15.08841357 85692,6917.876,95.437,540.75,538.733,0.0
51726.0,STARLINK-3527,PAYLOAD,2023-09-02 09:38:40,15.08843036,0.0001601,53.2146,125.9666,79.4429,280.6744,9.0118e-05,1.147e-05,0.0,0 STARLINK-3527,1 51726U 22016N   23245.40185345  .00001147  00000-0  90118-4 0  9994,2 51726  53.2146 125.9666 0001601  79.4429 280.6744 15.08843036 84788,6917.871,95.437,540.844,538.629,0.0
51726.0,STARLINK-3527,PAYLOAD,2023-09-03 01:32:31,15.08843402,0.0001596,53.2155,122.9927,79.7502,280.367,8.3184e-05,1.036e-05,0.0,0 STARLINK-3527,1 51726U 22016N   23246.06425199  .00001036  00000-0  83184-4 0  9993,2 51726  53.2155 122.9927 0001596  79.7502 280.3670 15.08843402 85944,6917.87,95.437,540.839,538.631,0.0
51726.0,STARLINK-3527,PAYLOAD,2023-09-03 09:29:27,15.08839575,0.0001518,53.2152,121.5051,81.2889,278.8275,4.7131e-05,4.62e-06,0.0,0 STARLINK-3527,1 51726U 22016N   23246.39545576  .00000462  00000-0  47131-4 0  9995,2 51726  53.2152 121.5051 0001518  81.2889 278.8275 15.08839575 84931,6917.882,95.438,540.797,538.697,0.0
51726.0,STARLINK-3527,PAYLOAD,2023-09-03 19:01:46,15.08833391,0.0001456,53.2154,119.7192,90.3218,269.7941,0.0001143,1.531e-05,0.0,0 STARLINK-3527,1 51726U 22016N   23246.79289781  .00001531  00000-0  11430-3 0  9992,2 51726  53.2154 119.7192 0001456  90.3218 269.7941 15.08833391 86050,6917.901,95.438,540.773,538.758,0.0
51726.0,STARLINK-3527,PAYLOAD,2023-09-04 01:23:18,15.08845056,0.0001232,53.2177,118.5284,102.5705,257.5425,-7.0601e-05,-1.411e-05,0.0,0 STARLINK-3527,1 51726U 22016N   23247.05785428 -.00001411  00000-0 -70601-4 0  9996,2 51726  53.2177 118.5284 0001232 102.5705 257.5425 15.08845056 86090,6917.865,95.437,540.582,538.878,0.0
51726.0,STARLINK-3527,PAYLOAD,2023-09-05 01:14:06,15.08834588,0.0001477,53.2165,114.0702,89.1417,270.9745,8.8708e-05,1.124e-05,0.0,0 STARLINK-3527,1 51726U 22016N   23248.05145839  .00001124  00000-0  88708-4 0  9999,2 51726  53.2165 114.0702 0001477  89.1417 270.9745 15.08834588 86243,6917.897,95.438,540.784,538.74,0.0
51726.0,STARLINK-3527,PAYLOAD,2023-09-06 01:04:52,15.0884479,0.0001053,53.2163,109.6092,89.6882,270.4231,8.5999e-05,1.081e-05,0.0,0 STARLINK-3527,1 51726U 22016N   23249.04505239  .00001081  00000-0  85999-4 0  9994,2 51726  53.2163 109.6092 0001053  89.6882 270.4231 15.08844790 86391,6917.866,95.437,540.459,539.002,0.0
51726.0,STARLINK-3527,PAYLOAD,2023-09-06 21:44:53,15.08838842,0.0001081,53.2171,105.7423,82.0653,278.0462,5.1611e-05,5.34e-06,0.0,0 STARLINK-3527,1 51726U 22016N   23249.90617878  .00000534  00000-0  51611-4 0  9998,2 51726  53.2171 105.7423 0001081  82.0653 278.0462 15.08838842 85467,6917.884,95.438,540.497,539.001,0.0
51726.0,STARLINK-3527,PAYLOAD,2023-09-06 23:20:16,15.08839625,0.0001104,53.2172,105.4449,81.6265,278.4852,5.7968e-05,6.35e-06,0.0,0 STARLINK-3527,1 51726U 22016N   23249.97241813  .00000635  00000-0  57968-4 0  9990,2 51726  53.2172 105.4449 0001104  81.6265 278.4852 15.08839625 86539,6917.882,95.438,540.51,538.983,0.0
51726.0,STARLINK-3527,PAYLOAD,2023-09-07 13:38:45,15.08839057,0.0001371,53.2174,102.77,88.512,271.6029,3.7058e-06,-2.29e-06,0.0,0 STARLINK-3527,1 51726U 22016N   23250.56858066 -.00000229  00000-0  37058-5 0  9990,2 51726  53.2174 102.7700 0001371  88.5120 271.6029 15.08839057 85565,6917.883,95.438,540.697,538.8,0.0
51726.0,STARLINK-3527,PAYLOAD,2023-09-08 00:46:27,15.08840467,0.0001375,53.217,100.6885,89.5522,270.5628,3.7847e-05,3.14e-06,0.0,0 STARLINK-3527,1 51726U 22016N   23251.03225880  .00000314  00000-0  37847-4 0  9994,2 51726  53.2170 100.6885 0001375  89.5522 270.5628 15.08840467 86698,6917.879,95.438,540.695,538.793,0.0
51726.0,STARLINK-3527,PAYLOAD,2023-09-08 21:26:27,15.08841407,0.0001232,53.2169,96.823,86.7126,273.4007,7.4042e-05,8.91e-06,0.0,0 STARLINK-3527,1 51726U 22016N   23251.89337796  .00000891  00000-0  74042-4 0  9996,2 51726  53.2169  96.8230 0001232  86.7126 273.4007 15.08841407 85762,6917.876,95.437,540.593,538.889,0.0
51726.0,STARLINK-3527,PAYLOAD,2023-09-09 06:58:46,15.08841389,0.0001209,53.2168,95.0388,85.8924,274.2206,5.3767e-05,5.68e-06,0.0,0 STARLINK-3527,1 51726U 22016N   23252.29081830  .00000568  00000-0  53767-4 0  9998,2 51726  53.2168  95.0388 0001209  85.8924 274.2206 15.08841389 86889,6917.876,95.437,540.578,538.905,0.0
51726.0,STARLINK-3527,PAYLOAD,2023-09-09 13:20:19,15.08841226,0.0001176,53.2171,93.8517,69.5068,290.605,3.1958e-05,2.21e-06,0.0,0 STARLINK-3527,1 51726U 22016N   23252.55578025  .00000221  00000-0  31958-4 0  9998,2 51726  53.2171  93.8517 0001176  69.5068 290.6050 15.08841226 85860,6917.877,95.437,540.555,538.928,0.0
51726.0,STARLINK-3527,PAYLOAD,2023-09-10 13:11:06,15.08840761,0.0001233,53.2171,89.3896,84.8208,275.2925,7.8807e-05,9.67e-06,0.0,0 STARLINK-3527,1 51726U 22016N   23253.54937921  .00000967  00000-0  78807-4 0  9993,2 51726  53.2171  89.3896 0001233  84.8208 275.2925 15.08840761 86011,6917.878,95.438,540.596,538.89,0.0
51726.0,STARLINK-3527,PAYLOAD,2023-09-10 17:57:15,15.0884378,0.0001222,53.2174,88.4977,83.7649,276.3482,5.0089e-05,5.09e-06,0.0,0 STARLINK-3527,1 51726U 22016N   23253.74809816  .00000509  00000-0  50089-4 0  9990,2 51726  53.2174  88.4977 0001222  83.7649 276.3482 15.08843780 87104,6917.869,95.437,540.579,538.888,0.0
51726.0,STARLINK-3527,PAYLOAD,2023-09-11 06:40:20,15.08840166,0.000123,53.2175,86.1186,83.4697,276.6435,2.624e-05,1.3e-06,0.0,0 STARLINK-3527,1 51726U 22016N   23254.27802064  .00000130  00000-0  26240-4 0  9999,2 51726  53.2175  86.1186 0001230  83.4697 276.6435 15.08840166 86128,6917.88,95.438,540.596,538.894,0.0
51726.0,STARLINK-3527,PAYLOAD,2023-09-11 17:48:03,15.08836072,0.0001241,53.2177,84.0367,85.1851,274.9282,3.3894e-05,2.52e-06,0.0,0 STARLINK-3527,1 51726U 22016N   23254.74170374  .00000252  00000-0  33894-4 0  9991,2 51726  53.2177  84.0367 0001241  85.1851 274.9282 15.08836072 87258,6917.892,95.438,540.616,538.899,0.0
51726.0,STARLINK-3527,PAYLOAD,2023-09-12 12:52:40,15.08840262,0.0001298,53.2183,80.4687,85.0812,275.0328,3.1651e-05,2.16e-06,0.0,0 STARLINK-3527,1 51726U 22016N   23255.53658131  .00000216  00000-0  31651-4 0  9990,2 51726  53.2183  80.4687 0001298  85.0812 275.0328 15.08840262 86313,6917.88,95.438,540.643,538.847,0.0
